SITRO-AIS 26            
1 59067U 24039S   24082.38694406  .00008736  00000+0  86199-3 0  9990
2 59067  95.3949  38.6643 0172659 281.4632  76.7241 14.81545376  3255
SITRO-AIS 27            
1 59068U 24039T   24082.58805511  .00008229  00000+0  81040-3 0  9991
2 59068  95.3951  38.8035 0172440 280.6510  77.5331 14.81656410  3284
SITRO-AIS 28            
1 59071U 24039U   24082.58750612  .00008274  00000+0  81435-3 0  9994
2 59071  95.3952  38.8045 0172302 280.6525  77.5332 14.81692314  3287
